NORAD_CAT_ID,OBJECT_NAME,OBJECT_TYPE,EPOCH,MEAN_MOTION,ECCENTRICITY,INCLINATION,RA_OF_ASC_NODE,ARG_OF_PERICENTER,MEAN_ANOMALY,BSTAR,MEAN_MOTION_DOT,MEAN_MOTION_DDOT,TLE_LINE0,TLE_LINE1,TLE_LINE2,SEMIMAJOR_AXIS,PERIOD,APOGEE,PERIGEE,DECAYED
53824.0,STARLINK-4757,PAYLOAD,2024-06-13 14:21:08,15.08851803,0.0001279,53.2158,270.7725,84.6178,275.496,-7.7781e-05,-1.526e-05,0.0,0 STARLINK-4757,1 53824U 22114G   24165.59801231 -.00001526  00000-0 -77781-4 0  9999,2 53824  53.2158 270.7725 0001279  84.6178 275.4960 15.08851803 97010,6917.844,95.437,540.594,538.825,0.0
53824.0,STARLINK-4757,PAYLOAD,2024-06-14 14:11:56,15.0881824,0.0001574,53.2162,266.313,79.9784,280.1386,-0.00055464,-9.099e-05,0.0,0 STARLINK-4757,1 53824U 22114G   24166.59162571 -.00009099  00000-0 -55464-3 0  9993,2 53824  53.2162 266.3130 0001574  79.9784 280.1386 15.08818240 97163,6917.947,95.439,540.901,538.723,0.0
53824.0,STARLINK-4757,PAYLOAD,2024-06-15 14:02:44,15.08834677,0.0001505,53.2151,261.8536,73.7386,286.3772,0.0010448,0.00016377,0.0,0 STARLINK-4757,1 53824U 22114G   24167.58523971  .00016377  00000-0  10448-2 0  9995,2 53824  53.2151 261.8536 0001505  73.7386 286.3772 15.08834677 97311,6917.897,95.438,540.803,538.721,0.0
53824.0,STARLINK-4757,PAYLOAD,2024-06-16 12:18:08,15.08843239,0.0001397,53.2149,257.6902,75.9523,284.1624,0.0005773,8.913e-05,0.0,0 STARLINK-4757,1 53824U 22114G   24168.51260046  .00008913  00000-0  57730-3 0  9993,2 53824  53.2149 257.6902 0001397  75.9523 284.1624 15.08843239 97455,6917.87,95.437,540.702,538.769,0.0
53824.0,STARLINK-4757,PAYLOAD,2024-06-17 12:08:56,15.08831034,0.0001622,53.217,253.2286,91.2518,268.866,-1.1996e-05,-4.79e-06,0.0,0 STARLINK-4757,1 53824U 22114G   24169.50620607 -.00000479  00000-0 -11996-4 0  9992,2 53824  53.2170 253.2286 0001622  91.2518 268.8660 15.08831034 97608,6917.908,95.438,540.895,538.651,0.0
53824.0,STARLINK-4757,PAYLOAD,2024-06-18 11:59:43,15.08847225,0.0001382,53.2166,248.7684,87.1151,272.9999,0.00040661,6.19e-05,0.0,0 STARLINK-4757,1 53824U 22114G   24170.49980467  .00006190  00000-0  40661-3 0  9999,2 53824  53.2166 248.7684 0001382  87.1151 272.9999 15.08847225 97301,6917.858,95.437,540.679,538.767,0.0
53824.0,STARLINK-4757,PAYLOAD,2024-06-19 05:28:57,15.08846137,0.0001414,53.2166,245.4975,88.3977,271.7177,0.00023987,3.532e-05,0.0,0 STARLINK-4757,1 53824U 22114G   24171.22844439  .00003532  00000-0  23987-3 0  9998,2 53824  53.2166 245.4975 0001414  88.3977 271.7177 15.08846137 97411,6917.862,95.437,540.705,538.748,0.0
53824.0,STARLINK-4757,PAYLOAD,2024-06-19 11:50:30,15.08840076,0.0001306,53.2157,244.3067,87.1373,272.9769,0.00011457,1.536e-05,0.0,0 STARLINK-4757,1 53824U 22114G   24171.49340618  .00001536  00000-0  11457-3 0  9998,2 53824  53.2157 244.3067 0001306  87.1373 272.9769 15.08840076 97908,6917.88,95.438,540.649,538.842,0.0
53824.0,STARLINK-4757,PAYLOAD,2024-06-20 13:16:40,15.08840467,0.0001287,53.2154,239.5495,86.4429,273.6711,3.1801e-05,2.18e-06,0.0,0 STARLINK-4757,1 53824U 22114G   24172.55324612  .00000218  00000-0  31801-4 0  9994,2 53824  53.2154 239.5495 0001287  86.4429 273.6711 15.08840467 98065,6917.879,95.438,540.634,538.854,0.0
53824.0,STARLINK-4757,PAYLOAD,2024-06-21 13:07:28,15.08832007,0.0001493,53.2175,235.0926,100.5684,259.5476,0.00011845,1.597e-05,0.0,0 STARLINK-4757,1 53824U 22114G   24173.54685472  .00001597  00000-0  11845-3 0  9994,2 53824  53.2175 235.0926 0001493 100.5684 259.5476 15.08832007 97766,6917.905,95.438,540.803,538.737,0.0
53824.0,STARLINK-4757,PAYLOAD,2024-06-22 11:22:51,15.08842068,0.0001456,53.2171,230.9303,100.3334,259.7822,0.00014774,2.064e-05,0.0,0 STARLINK-4757,1 53824U 22114G   24174.47420781  .00002064  00000-0  14774-3 0  9991,2 53824  53.2171 230.9303 0001456 100.3334 259.7822 15.08842068 97905,6917.874,95.437,540.746,538.732,0.0
53824.0,STARLINK-4757,PAYLOAD,2024-06-23 12:49:01,15.08840402,0.0001283,53.2166,226.1666,91.8197,268.2942,8.9901e-05,1.143e-05,0.0,0 STARLINK-4757,1 53824U 22114G   24175.53404860  .00001143  00000-0  89901-4 0  9991,2 53824  53.2166 226.1666 0001283  91.8197 268.2942 15.08840402 98063,6917.879,95.438,540.632,538.857,0.0
53824.0,STARLINK-4757,PAYLOAD,2024-06-24 09:29:02,15.08847864,0.0001402,53.2158,222.3024,88.1354,271.9798,7.1166e-05,8.45e-06,0.0,0 STARLINK-4757,1 53824U 22114G   24176.39516244  .00000845  00000-0  71166-4 0  9998,2 53824  53.2158 222.3024 0001402  88.1354 271.9798 15.08847864 98640,6917.856,95.437,540.691,538.751,0.0
53824.0,STARLINK-4757,PAYLOAD,2024-06-25 09:19:49,15.08836683,0.0001401,53.2156,217.8417,105.5172,254.5975,8.9786e-05,1.141e-05,0.0,0 STARLINK-4757,1 53824U 22114G   24177.38876619  .00001141  00000-0  89786-4 0  9990,2 53824  53.2156 217.8417 0001401 105.5172 254.5975 15.08836683 98342,6917.891,95.438,540.725,538.786,0.0
53824.0,STARLINK-4757,PAYLOAD,2024-06-26 09:10:36,15.08841644,0.0001331,53.2149,213.3817,96.531,263.5834,4.0468e-05,3.56e-06,0.0,0 STARLINK-4757,1 53824U 22114G   24178.38236517  .00000356  00000-0  40468-4 0  9999,2 53824  53.2149 213.3817 0001331  96.5310 263.5834 15.08841644 98947,6917.875,95.437,540.661,538.82,0.0
53824.0,STARLINK-4757,PAYLOAD,2024-06-27 09:01:23,15.08834271,0.0001362,53.2151,208.9216,94.2923,265.8225,6.1778e-05,6.95e-06,0.0,0 STARLINK-4757,1 53824U 22114G   24179.37597187  .00000695  00000-0  61778-4 0  9995,2 53824  53.2151 208.9216 0001362  94.2923 265.8225 15.08834271 98646,6917.898,95.438,540.705,538.821,0.0
53824.0,STARLINK-4757,PAYLOAD,2024-06-27 18:33:42,15.08837949,0.0001379,53.2153,207.1379,93.2445,266.8705,7.708e-05,9.39e-06,0.0,0 STARLINK-4757,1 53824U 22114G   24179.77341056  .00000939  00000-0  77080-4 0  9995,2 53824  53.2153 207.1379 0001379  93.2445 266.8705 15.08837949 99151,6917.887,95.438,540.706,538.798,0.0
53824.0,STARLINK-4757,PAYLOAD,2024-06-28 08:52:11,15.088344,0.0001478,53.2156,204.4637,103.6504,256.4653,5.345e-05,5.63e-06,0.0,0 STARLINK-4757,1 53824U 22114G   24180.36957548  .00000563  00000-0  53450-4 0  9999,2 53824  53.2156 204.4637 0001478 103.6504 256.4653 15.08834400 99249,6917.898,95.438,540.785,538.74,0.0
53824.0,STARLINK-4757,PAYLOAD,2024-06-29 05:32:12,15.08839173,0.0001434,53.2158,200.5978,103.5054,256.6098,9.9031e-05,1.288e-05,0.0,0 STARLINK-4757,1 53824U 22114G   24181.23069463  .00001288  00000-0  99031-4 0  9996,2 53824  53.2158 200.5978 0001434 103.5054 256.6098 15.08839173 98928,6917.883,95.438,540.74,538.756,0.0
53824.0,STARLINK-4757,PAYLOAD,2024-06-29 10:18:21,15.0884006,0.0001349,53.2152,199.7034,93.0864,267.0283,8.9652e-05,1.139e-05,0.0,0 STARLINK-4757,1 53824U 22114G   24181.42941478  .00001139  00000-0  89652-4 0  9995,2 53824  53.2152 199.7034 0001349  93.0864 267.0283 15.08840060 99404,6917.88,95.438,540.678,538.812,0.0
53824.0,STARLINK-4757,PAYLOAD,2024-06-29 18:15:17,15.0884244,0.0001368,53.2155,198.2155,85.9477,274.1672,8.8431e-05,1.12e-05,0.0,0 STARLINK-4757,1 53824U 22114G   24181.76061388  .00001120  00000-0  88431-4 0  9999,2 53824  53.2155 198.2155 0001368  85.9477 274.1672 15.08842440 99456,6917.873,95.437,540.684,538.792,0.0
53824.0,STARLINK-4757,PAYLOAD,2024-06-30 10:09:08,15.08841032,0.0001343,53.2148,195.2413,84.5931,275.5214,9.6698e-05,1.251e-05,0.0,0 STARLINK-4757,1 53824U 22114G   24182.42301528  .00001251  00000-0  96698-4 0  9995,2 53824  53.2148 195.2413 0001343  84.5931 275.5214 15.08841032 99100,6917.877,95.437,540.671,538.813,0.0
53824.0,STARLINK-4757,PAYLOAD,2024-06-30 18:06:03,15.08844584,0.000134,53.2147,193.7552,85.368,274.7465,0.00011251,1.503e-05,0.0,0 STARLINK-4757,1 53824U 22114G   24182.75421221  .00001503  00000-0  11251-3 0  9995,2 53824  53.2147 193.7552 0001340  85.3680 274.7465 15.08844584 99602,6917.866,95.437,540.658,538.804,0.0
53824.0,STARLINK-4757,PAYLOAD,2024-07-01 09:59:55,15.08841511,0.0001358,53.2147,190.7813,87.5187,272.596,7.1824e-05,8.55e-06,0.0,0 STARLINK-4757,1 53824U 22114G   24183.41661510  .00000855  00000-0  71824-4 0  9998,2 53824  53.2147 190.7813 0001358  87.5187 272.5960 15.08841511 99708,6917.876,95.437,540.68,538.801,0.0
53824.0,STARLINK-4757,PAYLOAD,2024-07-01 17:56:50,15.08844573,0.0001361,53.2146,189.2947,87.1615,272.9533,7.494e-05,9.05e-06,0.0,0 STARLINK-4757,1 53824U 22114G   24183.74781230  .00000905  00000-0  74940-4 0  9994,2 53824  53.2146 189.2947 0001361  87.1615 272.9533 15.08844573 99301,6917.866,95.437,540.673,538.79,0.0
53824.0,STARLINK-4757,PAYLOAD,2024-07-02 09:50:42,15.08843772,0.0001352,53.215,186.3194,92.9562,267.1585,6.0743e-05,6.79e-06,0.0,0 STARLINK-4757,1 53824U 22114G   24184.41021197  .00000679  00000-0  60743-4 0  9992,2 53824  53.2150 186.3194 0001352  92.9562 267.1585 15.08843772 99856,6917.869,95.437,540.669,538.799,0.0
53824.0,STARLINK-4757,PAYLOAD,2024-07-02 17:47:37,15.08846282,0.0001352,53.2152,184.8329,91.9192,268.1955,7.6809e-05,9.35e-06,0.0,0 STARLINK-4757,1 53824U 22114G   24184.74140867  .00000935  00000-0  76809-4 0  9999,2 53824  53.2152 184.8329 0001352  91.9192 268.1955 15.08846282 99906,6917.861,95.437,540.661,538.791,0.0
53824.0,STARLINK-4757,PAYLOAD,2024-07-03 04:55:20,15.08837279,0.0001383,53.2157,182.7522,91.0444,269.0706,4.0263e-05,3.53e-06,0.0,0 STARLINK-4757,1 53824U 22114G   24185.20509520  .00000353  00000-0  40263-4 0  9995,2 53824  53.2157 182.7522 0001383  91.0444 269.0706 15.08837279 99526,6917.889,95.438,540.71,538.797,0.0
53824.0,STARLINK-4757,PAYLOAD,2024-07-03 09:41:29,15.08841912,0.0001303,53.2155,181.8595,91.5349,268.5793,5.6323e-05,6.09e-06,0.0,0 STARLINK-4757,1 53824U 22114G   24185.40381156  .00000609  00000-0  56323-4 0  9998,2 53824  53.2155 181.8595 0001303  91.5349 268.5793 15.08841912100000,6917.875,95.437,540.641,538.838,0.0
53824.0,STARLINK-4757,PAYLOAD,2024-07-04 09:32:16,15.08837939,0.0001259,53.2153,177.3993,89.3348,270.7789,-3.4158e-06,-3.42e-06,0.0,0 STARLINK-4757,1 53824U 22114G   24186.39741550 -.00000342  00000-0 -34158-5 0  9994,2 53824  53.2153 177.3993 0001259  89.3348 270.7789 15.08837939 99702,6917.887,95.438,540.623,538.881,0.0
